start=new Date('2022-04-29T00:00:00.000Z').valueOf();
sats=[{"MEAN_MOTION_DOT":"0.00150003","NORAD_CAT_ID":"48697","SEMIMAJOR_AXIS":"6925.793","PERIOD":"95.601","REV_AT_EPOCH":"5229","RA_OF_ASC_NODE":"305.9278","INCLINATION":"53.0540","ECCENTRICITY":"0.00016580","ELEMENT_SET_NO":"999","GP_ID":"202226762","ARG_OF_PERICENTER":"77.9186","BSTAR":"0.00991590000000","MEAN_MOTION_DDOT":"0.0000000000000","CENTER_NAME":"EARTH","REF_FRAME":"TEME","CLASSIFICATION_TYPE":"U","APOAPSIS":"548.806","MEAN_MOTION":"15.06255060","OBJECT_ID":"2021-044BM","DECAY_DATE":null,"SITE":"AFETR","EPOCH":"2022-04-28T16:12:27.311904","RCS_SIZE":"LARGE","MEAN_ELEMENT_THEORY":"SGP4","LAUNCH_DATE":"2021-05-26","TLE_LINE2":"2 48697  53.0540 305.9278 0001658  77.9186 282.1989 15.06255060 52292","OBJECT_NAME":"STARLINK-2715","EPHEMERIS_TYPE":"0","TLE_LINE1":"1 48697U 21044BM  22118.67531611  .00150003  00000-0  99159-2 0  9993","MEAN_ANOMALY":"282.1989","OBJECT_TYPE":"PAYLOAD","COUNTRY_CODE":"US","PERIAPSIS":"546.510","TIME_SYSTEM":"UTC","FILE":"3420331"},{"REF_FRAME":"TEME","CENTER_NAME":"EARTH","CLASSIFICATION_TYPE":"U","BSTAR":"-0.00400390000000","MEAN_MOTION_DDOT":"0.0000000000000","ARG_OF_PERICENTER":"178.7199","ECCENTRICITY":"0.00051570","ELEMENT_SET_NO":"999","GP_ID":"202222402","RA_OF_ASC_NODE":"250.0147","INCLINATION":"97.5352","REV_AT_EPOCH":"4701","SEMIMAJOR_AXIS":"6895.966","PERIOD":"94.984","MEAN_MOTION_DOT":"-0.00076217","NORAD_CAT_ID":"48879","OBJECT_NAME":"STARLINK-3003","TLE_LINE2":"2 48879  97.5352 250.0147 0005157 178.7199 262.0590 15.16038062 47016","MEAN_ELEMENT_THEORY":"SGP4","LAUNCH_DATE":"2021-06-30","RCS_SIZE":"LARGE","DECAY_DATE":null,"SITE":"AFETR","EPOCH":"2022-04-28T22:00:01.999584","OBJECT_ID":"2021-059A","APOAPSIS":"521.387","MEAN_MOTION":"15.16038062","TLE_LINE1":"1 48879U 21059A   22118.91668981 -.00076217  00000-0 -40039-2 0  9998","EPHEMERIS_TYPE":"0","TIME_SYSTEM":"UTC","PERIAPSIS":"514.275","FILE":"3420152","COUNTRY_CODE":"US","MEAN_ANOMALY":"262.0590","OBJECT_TYPE":"PAYLOAD"},{"PERIAPSIS":"514.105","TIME_SYSTEM":"UTC","FILE":"3420171","COUNTRY_CODE":"US","MEAN_ANOMALY":"287.8191","OBJECT_TYPE":"PAYLOAD","TLE_LINE1":"1 48880U 21059B   22118.91668981 -.00076386  00000-0 -40121-2 0  9999","EPHEMERIS_TYPE":"0","OBJECT_NAME":"STARLINK-3004","TLE_LINE2":"2 48880  97.5347 250.0185 0005377 172.4827 287.8191 15.16043984 47018","MEAN_ELEMENT_THEORY":"SGP4","LAUNCH_DATE":"2021-06-30","RCS_SIZE":"LARGE","DECAY_DATE":null,"SITE":"AFETR","EPOCH":"2022-04-28T22:00:01.999584","OBJECT_ID":"2021-059B","APOAPSIS":"521.521","MEAN_MOTION":"15.16043984","REF_FRAME":"TEME","CENTER_NAME":"EARTH","CLASSIFICATION_TYPE":"U","BSTAR":"-0.00401210000000","MEAN_MOTION_DDOT":"0.0000000000000","ARG_OF_PERICENTER":"172.4827","ECCENTRICITY":"0.00053770","ELEMENT_SET_NO":"999","GP_ID":"202222653","INCLINATION":"97.5347","RA_OF_ASC_NODE":"250.0185","REV_AT_EPOCH":"4701","SEMIMAJOR_AXIS":"6895.948","PERIOD":"94.984","MEAN_MOTION_DOT":"-0.00076386","NORAD_CAT_ID":"48880"},{"TLE_LINE1":"1 48881U 21059C   22118.91668981 -.00073028  00000-0 -38333-2 0  9992","EPHEMERIS_TYPE":"0","COUNTRY_CODE":"US","MEAN_ANOMALY":"283.4063","OBJECT_TYPE":"PAYLOAD","TIME_SYSTEM":"UTC","PERIAPSIS":"514.255","FILE":"3420203","ARG_OF_PERICENTER":"168.9953","ECCENTRICITY":"0.00051340","ELEMENT_SET_NO":"999","GP_ID":"202223678","REF_FRAME":"TEME","CENTER_NAME":"EARTH","CLASSIFICATION_TYPE":"U","BSTAR":"-0.00383330000000","MEAN_MOTION_DDOT":"0.0000000000000","SEMIMAJOR_AXIS":"6895.930","PERIOD":"94.984","MEAN_MOTION_DOT":"-0.00073028","NORAD_CAT_ID":"48881","INCLINATION":"97.5351","RA_OF_ASC_NODE":"250.0349","REV_AT_EPOCH":"4701","MEAN_ELEMENT_THEORY":"SGP4","LAUNCH_DATE":"2021-06-30","OBJECT_NAME":"STARLINK-3005","TLE_LINE2":"2 48881  97.5351 250.0349 0005134 168.9953 283.4063 15.16049839 47012","OBJECT_ID":"2021-059C","APOAPSIS":"521.336","MEAN_MOTION":"15.16049839","RCS_SIZE":"LARGE","DECAY_DATE":null,"SITE":"AFETR","EPOCH":"2022-04-28T22:00:01.999584"},{"TLE_LINE1":"1 49131U 21082B   22118.58334491 -.00554967  00000-0 -21524-1 0  9995","EPHEMERIS_TYPE":"0","TIME_SYSTEM":"UTC","PERIAPSIS":"478.234","FILE":"3420061","OBJECT_TYPE":"PAYLOAD","MEAN_ANOMALY":"107.9281","COUNTRY_CODE":"US","BSTAR":"-0.02152400000000","MEAN_MOTION_DDOT":"0.0000000000000","REF_FRAME":"TEME","CENTER_NAME":"EARTH","CLASSIFICATION_TYPE":"U","ECCENTRICITY":"0.00033550","ELEMENT_SET_NO":"999","GP_ID":"202219475","ARG_OF_PERICENTER":"271.5389","INCLINATION":"70.0001","RA_OF_ASC_NODE":"213.9137","REV_AT_EPOCH":"365","MEAN_MOTION_DOT":"-0.00554967","NORAD_CAT_ID":"49131","SEMIMAJOR_AXIS":"6858.670","PERIOD":"94.215","TLE_LINE2":"2 49131  70.0001 213.9137 0003355 271.5389 107.9281 15.28420596  3659","OBJECT_NAME":"STARLINK-3096","MEAN_ELEMENT_THEORY":"SGP4","LAUNCH_DATE":"2021-09-14","SITE":"AFWTR","DECAY_DATE":null,"EPOCH":"2022-04-28T14:00:01.000224","RCS_SIZE":"LARGE","APOAPSIS":"482.836","MEAN_MOTION":"15.28420596","OBJECT_ID":"2021-082B"},{"TLE_LINE1":"1 49132U 21082C   22118.91668981 -.00058877  00000-0 -49624-2 0  9998","EPHEMERIS_TYPE":"0","MEAN_ANOMALY":"233.0051","OBJECT_TYPE":"PAYLOAD","COUNTRY_CODE":"US","TIME_SYSTEM":"UTC","PERIAPSIS":"569.537","FILE":"3420368","ECCENTRICITY":"0.00034360","ELEMENT_SET_NO":"999","GP_ID":"202228434","ARG_OF_PERICENTER":"281.7279","BSTAR":"-0.00496240000000","MEAN_MOTION_DDOT":"0.0000000000000","REF_FRAME":"TEME","CENTER_NAME":"EARTH","CLASSIFICATION_TYPE":"U","MEAN_MOTION_DOT":"-0.00058877","NORAD_CAT_ID":"49132","SEMIMAJOR_AXIS":"6950.060","PERIOD":"96.104","INCLINATION":"70.0001","RA_OF_ASC_NODE":"251.5026","REV_AT_EPOCH":"3465","MEAN_ELEMENT_THEORY":"SGP4","LAUNCH_DATE":"2021-09-14","TLE_LINE2":"2 49132  70.0001 251.5026 0003436 281.7279 233.0051 14.98372876 34659","OBJECT_NAME":"STARLINK-3090","APOAPSIS":"574.313","OBJECT_ID":"2021-082C","MEAN_MOTION":"14.98372876","SITE":"AFWTR","DECAY_DATE":null,"EPOCH":"2022-04-28T22:00:01.999584","RCS_SIZE":"LARGE"},{"TLE_LINE1":"1 49133U 21082D   22118.58334491 -.00036276  00000-0 -30457-2 0  9991","EPHEMERIS_TYPE":"0","TIME_SYSTEM":"UTC","PERIAPSIS":"569.694","FILE":"3420061","MEAN_ANOMALY":"268.2692","OBJECT_TYPE":"PAYLOAD","COUNTRY_CODE":"US","BSTAR":"-0.00304570000000","MEAN_MOTION_DDOT":"0.0000000000000","REF_FRAME":"TEME","CENTER_NAME":"EARTH","CLASSIFICATION_TYPE":"U","ECCENTRICITY":"0.00032620","ELEMENT_SET_NO":"999","GP_ID":"202218475","ARG_OF_PERICENTER":"274.6402","RA_OF_ASC_NODE":"252.3498","INCLINATION":"70.0010","REV_AT_EPOCH":"358","MEAN_MOTION_DOT":"-0.00036276","NORAD_CAT_ID":"49133","SEMIMAJOR_AXIS":"6950.096","PERIOD":"96.105","TLE_LINE2":"2 49133  70.0010 252.3498 0003262 274.6402 268.2692 14.98361199  3583","OBJECT_NAME":"STARLINK-3077","MEAN_ELEMENT_THEORY":"SGP4","LAUNCH_DATE":"2021-09-14","SITE":"AFWTR","DECAY_DATE":null,"EPOCH":"2022-04-28T14:00:01.000224","RCS_SIZE":"LARGE","APOAPSIS":"574.229","OBJECT_ID":"2021-082D","MEAN_MOTION":"14.98361199"},{"MEAN_MOTION":"14.98345250","APOAPSIS":"574.346","OBJECT_ID":"2021-082E","RCS_SIZE":"LARGE","SITE":"AFWTR","DECAY_DATE":null,"EPOCH":"2022-04-28T14:00:01.000224","MEAN_ELEMENT_THEORY":"SGP4","LAUNCH_DATE":"2021-09-14","OBJECT_NAME":"STARLINK-3078","TLE_LINE2":"2 49134  70.0020 252.3383 0003360 281.4737 287.1429 14.98345250  3582","SEMIMAJOR_AXIS":"6950.146","PERIOD":"96.106","MEAN_MOTION_DOT":"-0.00010452","NORAD_CAT_ID":"49134","RA_OF_ASC_NODE":"252.3383","REV_AT_EPOCH":"358","INCLINATION":"70.0020","ARG_OF_PERICENTER":"281.4737","ECCENTRICITY":"0.00033600","ELEMENT_SET_NO":"999","GP_ID":"202219724","CENTER_NAME":"EARTH","REF_FRAME":"TEME","CLASSIFICATION_TYPE":"U","BSTAR":"-0.00086911000000","MEAN_MOTION_DDOT":"0.0000000000000","COUNTRY_CODE":"US","OBJECT_TYPE":"PAYLOAD","MEAN_ANOMALY":"287.1429","PERIAPSIS":"569.675","TIME_SYSTEM":"UTC","FILE":"3420061","EPHEMERIS_TYPE":"0","TLE_LINE1":"1 49134U 21082E   22118.58334491 -.00010452  00000-0 -86911-3 0  9997"},{"FILE":"3420368","PERIAPSIS":"476.703","TIME_SYSTEM":"UTC","COUNTRY_CODE":"US","MEAN_ANOMALY":"56.6913","OBJECT_TYPE":"PAYLOAD","TLE_LINE1":"1 49135U 21082F   22118.91668981 -.00720286  00000-0 -27701-1 0  9992","EPHEMERIS_TYPE":"0","OBJECT_NAME":"STARLINK-3073","TLE_LINE2":"2 49135  69.9998 211.9275 0003306 269.1278  56.6913 15.28943977 35630","LAUNCH_DATE":"2021-09-14","MEAN_ELEMENT_THEORY":"SGP4","RCS_SIZE":"LARGE","EPOCH":"2022-04-28T22:00:01.999584","DECAY_DATE":null,"SITE":"AFWTR","MEAN_MOTION":"15.28943977","APOAPSIS":"481.237","OBJECT_ID":"2021-082F","CLASSIFICATION_TYPE":"U","CENTER_NAME":"EARTH","REF_FRAME":"TEME","MEAN_MOTION_DDOT":"0.0000000000000","BSTAR":"-0.02770100000000","ARG_OF_PERICENTER":"269.1278","GP_ID":"202227928","ECCENTRICITY":"0.00033060","ELEMENT_SET_NO":"999","INCLINATION":"69.9998","REV_AT_EPOCH":"3563","RA_OF_ASC_NODE":"211.9275","PERIOD":"94.183","SEMIMAJOR_AXIS":"6857.105","NORAD_CAT_ID":"49135","MEAN_MOTION_DOT":"-0.00720286"},{"REV_AT_EPOCH":"358","RA_OF_ASC_NODE":"231.5690","INCLINATION":"70.0020","MEAN_MOTION_DOT":"-0.00040870","NORAD_CAT_ID":"49136","SEMIMAJOR_AXIS":"6955.061","PERIOD":"96.208","BSTAR":"-0.00357970000000","MEAN_MOTION_DDOT":"0.0000000000000","CENTER_NAME":"EARTH","REF_FRAME":"TEME","CLASSIFICATION_TYPE":"U","ECCENTRICITY":"0.00032980","ELEMENT_SET_NO":"999","GP_ID":"202218225","ARG_OF_PERICENTER":"268.5531","SITE":"AFWTR","DECAY_DATE":null,"EPOCH":"2022-04-28T14:00:01.000224","RCS_SIZE":"LARGE","APOAPSIS":"579.219","MEAN_MOTION":"14.96757304","OBJECT_ID":"2021-082G","TLE_LINE2":"2 49136  70.0020 231.5690 0003298 268.5531  99.4451 14.96757304  3586","OBJECT_NAME":"STARLINK-3084","MEAN_ELEMENT_THEORY":"SGP4","LAUNCH_DATE":"2021-09-14","EPHEMERIS_TYPE":"0","TLE_LINE1":"1 49136U 21082G   22118.58334491 -.00040870  00000-0 -35797-2 0  9991","TIME_SYSTEM":"UTC","PERIAPSIS":"574.632","FILE":"3420061","MEAN_ANOMALY":"99.4451","OBJECT_TYPE":"PAYLOAD","COUNTRY_CODE":"US"}];
